STARLINK-30165          
1 57457U 23107A   26068.15803055  .00001619  00000+0  70021-4 0  9990
2 57457  42.9999 339.2931 0001498 275.8397  84.2284 15.26736421145055
FLOCK 4G-23             
1 62647U 25009AQ  26068.71663397  .00012440  00000+0  46816-3 0  9993
2 62647  97.3979 150.9478 0000905   7.2707 352.8545 15.27262579 63728
